start=new Date('%Y-%m-41T00:00:00.000Z').valueOf();
sats=[{"SITE":"AFETR","REF_FRAME":"TEME","PERIAPSIS":"546.376","INCLINATION":"53.0569","MEAN_ANOMALY":"262.1126","NORAD_CAT_ID":"45551","COUNTRY_CODE":"US","RCS_SIZE":"LARGE","LAUNCH_DATE":"2020-04-22","MEAN_ELEMENT_THEORY":"SGP4","REV_AT_EPOCH":"7488","OBJECT_NAME":"STARLINK-1294","MEAN_MOTION":"15.06391356","PERIOD":"95.593","ELEMENT_SET_NO":"999","MEAN_MOTION_DOT":"-0.00000657","MEAN_MOTION_DDOT":"0.0000000000000","TLE_LINE2":"2 45551  53.0569 347.2335 0001248  98.0004 262.1126 15.06391356 74889","EPHEMERIS_TYPE":"0","EPOCH":"2021-08-20T18:42:22.557600","SEMIMAJOR_AXIS":"6925.375","BSTAR":"-0.00002523600000","TIME_SYSTEM":"UTC","TLE_LINE1":"1 45551U 20025W   21232.77942775 -.00000657  00000-0 -25236-4 0  9999","OBJECT_TYPE":"PAYLOAD","ECCENTRICITY":"0.00012480","CLASSIFICATION_TYPE":"U","RA_OF_ASC_NODE":"347.2335","CENTER_NAME":"EARTH","GP_ID":"183153091","FILE":"3100512","DECAY_DATE":null,"OBJECT_ID":"2020-025W","ARG_OF_PERICENTER":"98.0004","APOAPSIS":"548.104"},{"ECCENTRICITY":"0.00013660","OBJECT_TYPE":"PAYLOAD","RA_OF_ASC_NODE":"346.0601","CENTER_NAME":"EARTH","CLASSIFICATION_TYPE":"U","SEMIMAJOR_AXIS":"6925.372","TLE_LINE1":"1 45552U 20025X   21233.04113137 -.00001420  00000-0 -76464-4 0  9991","TIME_SYSTEM":"UTC","BSTAR":"-0.00007646400000","APOAPSIS":"548.183","ARG_OF_PERICENTER":"119.5891","GP_ID":"183157936","DECAY_DATE":null,"OBJECT_ID":"2020-025X","FILE":"3100566","NORAD_CAT_ID":"45552","RCS_SIZE":"LARGE","COUNTRY_CODE":"US","LAUNCH_DATE":"2020-04-22","MEAN_ELEMENT_THEORY":"SGP4","REV_AT_EPOCH":"7431","PERIAPSIS":"546.291","SITE":"AFETR","REF_FRAME":"TEME","INCLINATION":"53.0566","MEAN_ANOMALY":"240.5234","MEAN_MOTION_DDOT":"0.0000000000000","TLE_LINE2":"2 45552  53.0566 346.0601 0001366 119.5891 240.5234 15.06392193 74312","EPHEMERIS_TYPE":"0","EPOCH":"2021-08-21T00:59:13.750368","PERIOD":"95.593","ELEMENT_SET_NO":"999","OBJECT_NAME":"STARLINK-1322","MEAN_MOTION":"15.06392193","MEAN_MOTION_DOT":"-0.00001420"},{"EPHEMERIS_TYPE":"0","TLE_LINE2":"2 45553  53.0562 347.1808 0001100  90.9447 269.1668 15.06396218 73594","MEAN_MOTION_DDOT":"0.0000000000000","EPOCH":"2021-08-20T18:58:18.273792","ELEMENT_SET_NO":"999","PERIOD":"95.592","MEAN_MOTION":"15.06396218","OBJECT_NAME":"STARLINK-1323","MEAN_MOTION_DOT":"-0.00000548","NORAD_CAT_ID":"45553","REV_AT_EPOCH":"7359","LAUNCH_DATE":"2020-04-22","MEAN_ELEMENT_THEORY":"SGP4","COUNTRY_CODE":"US","RCS_SIZE":"LARGE","PERIAPSIS":"546.463","REF_FRAME":"TEME","SITE":"AFETR","MEAN_ANOMALY":"269.1668","INCLINATION":"53.0562","APOAPSIS":"547.987","ARG_OF_PERICENTER":"90.9447","GP_ID":"183154093","OBJECT_ID":"2020-025Y","DECAY_DATE":null,"FILE":"3100512","ECCENTRICITY":"0.00011000","OBJECT_TYPE":"PAYLOAD","CENTER_NAME":"EARTH","RA_OF_ASC_NODE":"347.1808","CLASSIFICATION_TYPE":"U","SEMIMAJOR_AXIS":"6925.360","TLE_LINE1":"1 45553U 20025Y   21232.79048928 -.00000548  00000-0 -17881-4 0  9996","TIME_SYSTEM":"UTC","BSTAR":"-0.00001788100000"},{"GP_ID":"183153342","FILE":"3100512","DECAY_DATE":null,"OBJECT_ID":"2020-025Z","ARG_OF_PERICENTER":"107.7688","APOAPSIS":"548.144","SEMIMAJOR_AXIS":"6925.376","BSTAR":"-0.00005948800000","TLE_LINE1":"1 45554U 20025Z   21232.58407335 -.00001167  00000-0 -59488-4 0  9992","TIME_SYSTEM":"UTC","OBJECT_TYPE":"PAYLOAD","ECCENTRICITY":"0.00013040","CLASSIFICATION_TYPE":"U","RA_OF_ASC_NODE":"348.1094","CENTER_NAME":"EARTH","MEAN_MOTION":"15.06390940","OBJECT_NAME":"STARLINK-1325","PERIOD":"95.593","ELEMENT_SET_NO":"999","MEAN_MOTION_DOT":"-0.00001167","MEAN_MOTION_DDOT":"0.0000000000000","TLE_LINE2":"2 45554  53.0568 348.1094 0001304 107.7688 252.3443 15.06390940 74850","EPHEMERIS_TYPE":"0","EPOCH":"2021-08-20T14:01:03.937440","REF_FRAME":"TEME","SITE":"AFETR","PERIAPSIS":"546.338","INCLINATION":"53.0568","MEAN_ANOMALY":"252.3443","NORAD_CAT_ID":"45554","RCS_SIZE":"LARGE","COUNTRY_CODE":"US","LAUNCH_DATE":"2020-04-22","MEAN_ELEMENT_THEORY":"SGP4","REV_AT_EPOCH":"7485"},{"REF_FRAME":"TEME","SITE":"AFETR","PERIAPSIS":"546.457","MEAN_ANOMALY":"254.8762","INCLINATION":"53.0568","NORAD_CAT_ID":"45555","LAUNCH_DATE":"2020-04-22","MEAN_ELEMENT_THEORY":"SGP4","REV_AT_EPOCH":"7487","RCS_SIZE":"LARGE","COUNTRY_CODE":"US","OBJECT_NAME":"STARLINK-1327","MEAN_MOTION":"15.06402348","ELEMENT_SET_NO":"999","PERIOD":"95.592","MEAN_MOTION_DOT":"0.00001368","EPHEMERIS_TYPE":"0","TLE_LINE2":"2 45555  53.0568 347.3801 0001082 105.2347 254.8762 15.06402348 74875","MEAN_MOTION_DDOT":"0.0000000000000","EPOCH":"2021-08-20T17:54:35.734752","SEMIMAJOR_AXIS":"6925.341","BSTAR":"0.00011072000000","TIME_SYSTEM":"UTC","TLE_LINE1":"1 45555U 20025AA  21232.74624693  .00001368  00000-0  11072-3 0  9996","OBJECT_TYPE":"PAYLOAD","ECCENTRICITY":"0.00010820","CLASSIFICATION_TYPE":"U","CENTER_NAME":"EARTH","RA_OF_ASC_NODE":"347.3801","GP_ID":"183153592","FILE":"3100512","OBJECT_ID":"2020-025AA","DECAY_DATE":null,"ARG_OF_PERICENTER":"105.2347","APOAPSIS":"547.956"},{"CENTER_NAME":"EARTH","RA_OF_ASC_NODE":"346.0113","CLASSIFICATION_TYPE":"U","ECCENTRICITY":"0.00010730","OBJECT_TYPE":"PAYLOAD","TIME_SYSTEM":"UTC","TLE_LINE1":"1 45556U 20025AB  21233.05218393 -.00000971  00000-0 -46330-4 0  9995","BSTAR":"-0.00004633000000","SEMIMAJOR_AXIS":"6925.363","APOAPSIS":"547.971","ARG_OF_PERICENTER":"122.3829","OBJECT_ID":"2020-025AB","DECAY_DATE":null,"FILE":"3100549","GP_ID":"183158330","MEAN_ELEMENT_THEORY":"SGP4","LAUNCH_DATE":"2020-04-22","REV_AT_EPOCH":"7432","RCS_SIZE":"LARGE","COUNTRY_CODE":"US","NORAD_CAT_ID":"45556","MEAN_ANOMALY":"237.7264","INCLINATION":"53.0557","PERIAPSIS":"546.484","SITE":"AFETR","REF_FRAME":"TEME","EPOCH":"2021-08-21T01:15:08.691552","EPHEMERIS_TYPE":"0","TLE_LINE2":"2 45556  53.0557 346.0113 0001073 122.3829 237.7264 15.06395446 74328","MEAN_MOTION_DDOT":"0.0000000000000","MEAN_MOTION_DOT":"-0.00000971","ELEMENT_SET_NO":"999","PERIOD":"95.592","OBJECT_NAME":"STARLINK-1334","MEAN_MOTION":"15.06395446"},{"NORAD_CAT_ID":"45557","RCS_SIZE":"LARGE","COUNTRY_CODE":"US","MEAN_ELEMENT_THEORY":"SGP4","LAUNCH_DATE":"2020-04-22","REV_AT_EPOCH":"7485","SITE":"AFETR","REF_FRAME":"TEME","PERIAPSIS":"546.427","INCLINATION":"53.0567","MEAN_ANOMALY":"244.4240","MEAN_MOTION_DDOT":"0.0000000000000","TLE_LINE2":"2 45557  53.0567 348.0572 0001146 115.6867 244.4240 15.06397849 74855","EPHEMERIS_TYPE":"0","EPOCH":"2021-08-20T14:16:59.167200","OBJECT_NAME":"STARLINK-1336","MEAN_MOTION":"15.06397849","PERIOD":"95.592","ELEMENT_SET_NO":"999","MEAN_MOTION_DOT":"0.00000819","OBJECT_TYPE":"PAYLOAD","ECCENTRICITY":"0.00011460","CLASSIFICATION_TYPE":"U","RA_OF_ASC_NODE":"348.0572","CENTER_NAME":"EARTH","SEMIMAJOR_AXIS":"6925.355","BSTAR":"0.00007388900000","TIME_SYSTEM":"UTC","TLE_LINE1":"1 45557U 20025AC  21232.59512925  .00000819  00000-0  73889-4 0  9990","ARG_OF_PERICENTER":"115.6867","APOAPSIS":"548.014","GP_ID":"183154594","FILE":"3100512","DECAY_DATE":null,"OBJECT_ID":"2020-025AC"},{"BSTAR":"-0.00000869370000","TLE_LINE1":"1 45558U 20025AD  21232.76100408 -.00000411  00000-0 -86937-5 0  9998","TIME_SYSTEM":"UTC","SEMIMAJOR_AXIS":"6925.378","CLASSIFICATION_TYPE":"U","CENTER_NAME":"EARTH","RA_OF_ASC_NODE":"347.3163","OBJECT_TYPE":"PAYLOAD","ECCENTRICITY":"0.00012720","FILE":"3100512","OBJECT_ID":"2020-025AD","DECAY_DATE":null,"GP_ID":"183152842","ARG_OF_PERICENTER":"110.6083","APOAPSIS":"548.124","MEAN_ANOMALY":"249.5043","INCLINATION":"53.0558","SITE":"AFETR","REF_FRAME":"TEME","PERIAPSIS":"546.363","MEAN_ELEMENT_THEORY":"SGP4","LAUNCH_DATE":"2020-04-22","REV_AT_EPOCH":"7487","RCS_SIZE":"LARGE","COUNTRY_CODE":"US","NORAD_CAT_ID":"45558","MEAN_MOTION_DOT":"-0.00000411","OBJECT_NAME":"STARLINK-1342","MEAN_MOTION":"15.06390237","ELEMENT_SET_NO":"999","PERIOD":"95.593","EPOCH":"2021-08-20T18:15:50.752512","EPHEMERIS_TYPE":"0","TLE_LINE2":"2 45558  53.0558 347.3163 0001272 110.6083 249.5043 15.06390237 74872","MEAN_MOTION_DDOT":"0.0000000000000"},{"GP_ID":"183153092","FILE":"3100512","DECAY_DATE":null,"OBJECT_ID":"2020-025AE","ARG_OF_PERICENTER":"123.1146","APOAPSIS":"548.088","SEMIMAJOR_AXIS":"6925.345","BSTAR":"0.00007537300000","TLE_LINE1":"1 45559U 20025AE  21232.79785346  .00000841  00000-0  75373-4 0  9998","TIME_SYSTEM":"UTC","OBJECT_TYPE":"PAYLOAD","ECCENTRICITY":"0.00012670","CLASSIFICATION_TYPE":"U","RA_OF_ASC_NODE":"347.1494","CENTER_NAME":"EARTH","MEAN_MOTION":"15.06401110","OBJECT_NAME":"STARLINK-1344","PERIOD":"95.592","ELEMENT_SET_NO":"999","MEAN_MOTION_DOT":"0.00000841","MEAN_MOTION_DDOT":"0.0000000000000","EPHEMERIS_TYPE":"0","TLE_LINE2":"2 45559  53.0573 347.1494 0001267 123.1146 236.9964 15.06401110 74884","EPOCH":"2021-08-20T19:08:54.538944","SITE":"AFETR","REF_FRAME":"TEME","PERIAPSIS":"546.333","INCLINATION":"53.0573","MEAN_ANOMALY":"236.9964","NORAD_CAT_ID":"45559","RCS_SIZE":"LARGE","COUNTRY_CODE":"US","REV_AT_EPOCH":"7488","LAUNCH_DATE":"2020-04-22","MEAN_ELEMENT_THEORY":"SGP4"},{"SEMIMAJOR_AXIS":"6925.366","TIME_SYSTEM":"UTC","TLE_LINE1":"1 45560U 20025AF  21232.71769077 -.00001213  00000-0 -62595-4 0  9993","BSTAR":"-0.00006259500000","ECCENTRICITY":"0.00011230","OBJECT_TYPE":"PAYLOAD","CENTER_NAME":"EARTH","RA_OF_ASC_NODE":"337.5088","CLASSIFICATION_TYPE":"U","GP_ID":"183154344","OBJECT_ID":"2020-025AF","DECAY_DATE":null,"FILE":"3100512","APOAPSIS":"548.009","ARG_OF_PERICENTER":"114.9371","PERIAPSIS":"546.454","REF_FRAME":"TEME","SITE":"AFETR","MEAN_ANOMALY":"245.1735","INCLINATION":"53.0559","NORAD_CAT_ID":"45560","LAUNCH_DATE":"2020-04-22","REV_AT_EPOCH":"7501","MEAN_ELEMENT_THEORY":"SGP4","COUNTRY_CODE":"US","RCS_SIZE":"LARGE","ELEMENT_SET_NO":"999","PERIOD":"95.593","OBJECT_NAME":"STARLINK-1346","MEAN_MOTION":"15.06394163","MEAN_MOTION_DOT":"-0.00001213","TLE_LINE2":"2 45560  53.0559 337.5088 0001123 114.9371 245.1735 15.06394163 75014","EPHEMERIS_TYPE":"0","MEAN_MOTION_DDOT":"0.0000000000000","EPOCH":"2021-08-20T17:13:28.482528"}];
